NODE_0_0
1 00000U 23666A   24029.79275552  .00000000  00000-0 00000000 0 00004
2 00000  90.0000 000.0000 0000011   0.0000   0.0000 20.00000000000005
NODE_0_1
1 00000U 23666A   24029.79275552  .00000000  00000-0 00000000 0 00004
2 00000  90.0000 000.0000 0000011   0.0000  72.0000 20.00000000000004
NODE_0_2
1 00000U 23666A   24029.79275552  .00000000  00000-0 00000000 0 00004
2 00000  90.0000 000.0000 0000011   0.0000 144.0000 20.00000000000004
NODE_0_3
1 00000U 23666A   24029.79275552  .00000000  00000-0 00000000 0 00004
2 00000  90.0000 000.0000 0000011   0.0000 216.0000 20.00000000000004
NODE_0_4
1 00000U 23666A   24029.79275552  .00000000  00000-0 00000000 0 00004
2 00000  90.0000 000.0000 0000011   0.0000 288.0000 20.00000000000003
NODE_1_0
1 00000U 23666A   24029.79275552  .00000000  00000-0 00000000 0 00004
2 00000  90.0000 018.0000 0000011   0.0000   5.0000 20.00000000000009
NODE_1_1
1 00000U 23666A   24029.79275552  .00000000  00000-0 00000000 0 00004
2 00000  90.0000 018.0000 0000011   0.0000  77.0000 20.00000000000008
NODE_1_2
1 00000U 23666A   24029.79275552  .00000000  00000-0 00000000 0 00004
2 00000  90.0000 018.0000 0000011   0.0000 149.0000 20.00000000000008
NODE_1_3
1 00000U 23666A   24029.79275552  .00000000  00000-0 00000000 0 00004
2 00000  90.0000 018.0000 0000011   0.0000 221.0000 20.00000000000009
NODE_1_4
1 00000U 23666A   24029.79275552  .00000000  00000-0 00000000 0 00004
2 00000  90.0000 018.0000 0000011   0.0000 293.0000 20.00000000000008
NODE_2_0
1 00000U 23666A   24029.79275552  .00000000  00000-0 00000000 0 00004
2 00000  90.0000 036.0000 0000011   0.0000  10.0000 20.00000000000005
NODE_2_1
1 00000U 23666A   24029.79275552  .00000000  00000-0 00000000 0 00004
2 00000  90.0000 036.0000 0000011   0.0000  82.0000 20.00000000000004
NODE_2_2
1 00000U 23666A   24029.79275552  .00000000  00000-0 00000000 0 00004
2 00000  90.0000 036.0000 0000011   0.0000 154.0000 20.00000000000004
NODE_2_3
1 00000U 23666A   24029.79275552  .00000000  00000-0 00000000 0 00004
2 00000  90.0000 036.0000 0000011   0.0000 226.0000 20.00000000000004
NODE_2_4
1 00000U 23666A   24029.79275552  .00000000  00000-0 00000000 0 00004
2 00000  90.0000 036.0000 0000011   0.0000 298.0000 20.00000000000003
NODE_3_0
1 00000U 23666A   24029.79275552  .00000000  00000-0 00000000 0 00004
2 00000  90.0000 054.0000 0000011   0.0000  15.0000 20.00000000000000
NODE_3_1
1 00000U 23666A   24029.79275552  .00000000  00000-0 00000000 0 00004
2 00000  90.0000 054.0000 0000011   0.0000  87.0000 20.00000000000009
NODE_3_2
1 00000U 23666A   24029.79275552  .00000000  00000-0 00000000 0 00004
2 00000  90.0000 054.0000 0000011   0.0000 159.0000 20.00000000000009
NODE_3_3
1 00000U 23666A   24029.79275552  .00000000  00000-0 00000000 0 00004
2 00000  90.0000 054.0000 0000011   0.0000 231.0000 20.00000000000000
NODE_3_4
1 00000U 23666A   24029.79275552  .00000000  00000-0 00000000 0 00004
2 00000  90.0000 054.0000 0000011   0.0000 303.0000 20.00000000000000
NODE_4_0
1 00000U 23666A   24029.79275552  .00000000  00000-0 00000000 0 00004
2 00000  90.0000 072.0000 0000011   0.0000  20.0000 20.00000000000006
NODE_4_1
1 00000U 23666A   24029.79275552  .00000000  00000-0 00000000 0 00004
2 00000  90.0000 072.0000 0000011   0.0000  92.0000 20.00000000000005
NODE_4_2
1 00000U 23666A   24029.79275552  .00000000  00000-0 00000000 0 00004
2 00000  90.0000 072.0000 0000011   0.0000 164.0000 20.00000000000005
NODE_4_3
1 00000U 23666A   24029.79275552  .00000000  00000-0 00000000 0 00004
2 00000  90.0000 072.0000 0000011   0.0000 236.0000 20.00000000000005
NODE_4_4
1 00000U 23666A   24029.79275552  .00000000  00000-0 00000000 0 00004
2 00000  90.0000 072.0000 0000011   0.0000 308.0000 20.00000000000005
NODE_5_0
1 00000U 23666A   24029.79275552  .00000000  00000-0 00000000 0 00004
2 00000  90.0000 090.0000 0000011   0.0000  25.0000 20.00000000000001
NODE_5_1
1 00000U 23666A   24029.79275552  .00000000  00000-0 00000000 0 00004
2 00000  90.0000 090.0000 0000011   0.0000  97.0000 20.00000000000000
NODE_5_2
1 00000U 23666A   24029.79275552  .00000000  00000-0 00000000 0 00004
2 00000  90.0000 090.0000 0000011   0.0000 169.0000 20.00000000000000
NODE_5_3
1 00000U 23666A   24029.79275552  .00000000  00000-0 00000000 0 00004
2 00000  90.0000 090.0000 0000011   0.0000 241.0000 20.00000000000001
NODE_5_4
1 00000U 23666A   24029.79275552  .00000000  00000-0 00000000 0 00004
2 00000  90.0000 090.0000 0000011   0.0000 313.0000 20.00000000000001
NODE_6_0
1 00000U 23666A   24029.79275552  .00000000  00000-0 00000000 0 00004
2 00000  90.0000 108.0000 0000011   0.0000  30.0000 20.00000000000007
NODE_6_1
1 00000U 23666A   24029.79275552  .00000000  00000-0 00000000 0 00004
2 00000  90.0000 108.0000 0000011   0.0000 102.0000 20.00000000000007
NODE_6_2
1 00000U 23666A   24029.79275552  .00000000  00000-0 00000000 0 00004
2 00000  90.0000 108.0000 0000011   0.0000 174.0000 20.00000000000006
NODE_6_3
1 00000U 23666A   24029.79275552  .00000000  00000-0 00000000 0 00004
2 00000  90.0000 108.0000 0000011   0.0000 246.0000 20.00000000000006
NODE_6_4
1 00000U 23666A   24029.79275552  .00000000  00000-0 00000000 0 00004
2 00000  90.0000 108.0000 0000011   0.0000 318.0000 20.00000000000006
NODE_7_0
1 00000U 23666A   24029.79275552  .00000000  00000-0 00000000 0 00004
2 00000  90.0000 126.0000 0000011   0.0000  35.0000 20.00000000000002
NODE_7_1
1 00000U 23666A   24029.79275552  .00000000  00000-0 00000000 0 00004
2 00000  90.0000 126.0000 0000011   0.0000 107.0000 20.00000000000002
NODE_7_2
1 00000U 23666A   24029.79275552  .00000000  00000-0 00000000 0 00004
2 00000  90.0000 126.0000 0000011   0.0000 179.0000 20.00000000000001
NODE_7_3
1 00000U 23666A   24029.79275552  .00000000  00000-0 00000000 0 00004
2 00000  90.0000 126.0000 0000011   0.0000 251.0000 20.00000000000002
NODE_7_4
1 00000U 23666A   24029.79275552  .00000000  00000-0 00000000 0 00004
2 00000  90.0000 126.0000 0000011   0.0000 323.0000 20.00000000000002
NODE_8_0
1 00000U 23666A   24029.79275552  .00000000  00000-0 00000000 0 00004
2 00000  90.0000 144.0000 0000011   0.0000  40.0000 20.00000000000008
NODE_8_1
1 00000U 23666A   24029.79275552  .00000000  00000-0 00000000 0 00004
2 00000  90.0000 144.0000 0000011   0.0000 112.0000 20.00000000000008
NODE_8_2
1 00000U 23666A   24029.79275552  .00000000  00000-0 00000000 0 00004
2 00000  90.0000 144.0000 0000011   0.0000 184.0000 20.00000000000007
NODE_8_3
1 00000U 23666A   24029.79275552  .00000000  00000-0 00000000 0 00004
2 00000  90.0000 144.0000 0000011   0.0000 256.0000 20.00000000000007
NODE_8_4
1 00000U 23666A   24029.79275552  .00000000  00000-0 00000000 0 00004
2 00000  90.0000 144.0000 0000011   0.0000 328.0000 20.00000000000007
NODE_9_0
1 00000U 23666A   24029.79275552  .00000000  00000-0 00000000 0 00004
2 00000  90.0000 162.0000 0000011   0.0000  45.0000 20.00000000000003
NODE_9_1
1 00000U 23666A   24029.79275552  .00000000  00000-0 00000000 0 00004
2 00000  90.0000 162.0000 0000011   0.0000 117.0000 20.00000000000003
NODE_9_2
1 00000U 23666A   24029.79275552  .00000000  00000-0 00000000 0 00004
2 00000  90.0000 162.0000 0000011   0.0000 189.0000 20.00000000000002
NODE_9_3
1 00000U 23666A   24029.79275552  .00000000  00000-0 00000000 0 00004
2 00000  90.0000 162.0000 0000011   0.0000 261.0000 20.00000000000003
NODE_9_4
1 00000U 23666A   24029.79275552  .00000000  00000-0 00000000 0 00004
2 00000  90.0000 162.0000 0000011   0.0000 333.0000 20.00000000000003
